[
  {
    "COMMENT": "GENERATED VIA SPACETRACK.ORG API",
    "ORIGINATOR": "18 SPCS",
    "NORAD_CAT_ID": "39086",
    "OBJECT_NAME": "SARAL",
    "OBJECT_TYPE": "PAYLOAD",
    "CLASSIFICATION_TYPE": "U",
    "INTLDES": "13009A",
    "EPOCH": "2023-08-31 21:33:36",
    "EPOCH_MICROSECONDS": "183744",
    "MEAN_MOTION": "14.32252173",
    "ECCENTRICITY": "0.0003009",
    "INCLINATION": "98.5497",
    "RA_OF_ASC_NODE": "68.0936",
    "ARG_OF_PERICENTER": "72.0151",
    "MEAN_ANOMALY": "288.136",
    "EPHEMERIS_TYPE": "0",
    "ELEMENT_SET_NO": "999",
    "REV_AT_EPOCH": "54952",
    "BSTAR": "0.000065148",
    "MEAN_MOTION_DOT": "0.00000132",
    "MEAN_MOTION_DDOT": "0",
    "FILE": "3994074",
    "TLE_LINE0": "0 SARAL",
    "TLE_LINE1": "1 39086U 13009A   23243.89833546  .00000132  00000-0  65148-4 0  9993",
    "TLE_LINE2": "2 39086  98.5497  68.0936 0003009  72.0151 288.1360 14.32252173549523",
    "OBJECT_ID": "2013-009A",
    "OBJECT_NUMBER": "39086",
    "SEMIMAJOR_AXIS": "7162.350",
    "PERIOD": "100.541",
    "APOGEE": "786.370",
    "PERIGEE": "782.059",
    "DECAYED": "0"
  }
]